[
    {
        "Altitude(m)": 702703.6546167942,
        "Argument of Periapsis(deg)": 0.0022780242373254137,
        "Eccentricity": 0.0,
        "Inclination(deg)": 45.0,
        "Latitude(deg)": 9.886139360022394,
        "Longitude(deg)": -15.11243378259789,
        "Mean Anomaly(deg)": -194.0569566705038,
        "RAAN(deg)": 274.9978496117084,
        "Satellite Name": "Constellation 1 1220",
        "Satellite Number": 1220,
        "Semi-Major Axis(m)": 7083131.272910544,
        "Time(s)": 38
    },
    {
        "Altitude(m)": 702704.5445958426,
        "Argument of Periapsis(deg)": 0.002337972243570819,
        "Eccentricity": 0.0,
        "Inclination(deg)": 45.0,
        "Latitude(deg)": 9.843575311620079,
        "Longitude(deg)": -15.07238540509792,
        "Mean Anomaly(deg)": -193.99625553025396,
        "RAAN(deg)": 274.9977930225428,
        "Satellite Name": "Constellation 1 1220",
        "Satellite Number": 1220,
        "Semi-Major Axis(m)": 7083131.272910544,
        "Time(s)": 39
    },
    {
        "Altitude(m)": 702705.4542593715,
        "Argument of Periapsis(deg)": 0.0023979202498162246,
        "Eccentricity": 0.0,
        "Inclination(deg)": 45.0,
        "Latitude(deg)": 9.801005432333914,
        "Longitude(deg)": -15.032348373067586,
        "Mean Anomaly(deg)": -193.93555439000403,
        "RAAN(deg)": 274.9977364333772,
        "Satellite Name": "Constellation 1 1220",
        "Satellite Number": 1220,
        "Semi-Major Axis(m)": 7083131.272910544,
        "Time(s)": 40
    },
    {
        "Altitude(m)": 702706.383621735,
        "Argument of Periapsis(deg)": 0.00245786825606163,
        "Eccentricity": 0.0,
        "Inclination(deg)": 45.0,
        "Latitude(deg)": 9.758429749584863,
        "Longitude(deg)": -14.992322635398565,
        "Mean Anomaly(deg)": -193.8748532497541,
        "RAAN(deg)": 274.99767984421163,
        "Satellite Name": "Constellation 1 1220",
        "Satellite Number": 1220,
        "Semi-Major Axis(m)": 7083131.272910544,
        "Time(s)": 41
    },
    {
        "Altitude(m)": 702707.3326972058,
        "Argument of Periapsis(deg)": 0.002517816262307036,
        "Eccentricity": 0.0,
        "Inclination(deg)": 45.0,
        "Latitude(deg)": 9.715848290771902,
        "Longitude(deg)": -14.952308141005636,
        "Mean Anomaly(deg)": -193.8141521095042,
        "RAAN(deg)": 274.99762325504605,
        "Satellite Name": "Constellation 1 1220",
        "Satellite Number": 1220,
        "Semi-Major Axis(m)": 7083131.272910544,
        "Time(s)": 42
    },
    {
        "Altitude(m)": 702708.3014999632,
        "Argument of Periapsis(deg)": 0.0025777642685524413,
        "Eccentricity": 0.0,
        "Inclination(deg)": 45.0,
        "Latitude(deg)": 9.673261083272465,
        "Longitude(deg)": -14.912304838826847,
        "Mean Anomaly(deg)": -193.75345096925432,
        "RAAN(deg)": 274.9975666658805,
        "Satellite Name": "Constellation 1 1220",
        "Satellite Number": 1220,
        "Semi-Major Axis(m)": 7083131.272910544,
        "Time(s)": 43
    },
    {
        "Altitude(m)": 702709.2900441156,
        "Argument of Periapsis(deg)": 0.002637712274797847,
        "Eccentricity": 0.0,
        "Inclination(deg)": 45.0,
        "Latitude(deg)": 9.630668154441967,
        "Longitude(deg)": -14.87231284592016,
        "Mean Anomaly(deg)": -193.6927498290044,
        "RAAN(deg)": 274.99751007671495,
        "Satellite Name": "Constellation 1 1220",
        "Satellite Number": 1220,
        "Semi-Major Axis(m)": 7083131.272910544,
        "Time(s)": 44
    },
    {
        "Altitude(m)": 702710.2983436767,
        "Argument of Periapsis(deg)": 0.0026976602810432526,
        "Eccentricity": 0.0,
        "Inclination(deg)": 45.0,
        "Latitude(deg)": 9.588069531615407,
        "Longitude(deg)": -14.83233177507556,
        "Mean Anomaly(deg)": -193.63204868875454,
        "RAAN(deg)": 274.9974534875494,
        "Satellite Name": "Constellation 1 1220",
        "Satellite Number": 1220,
        "Semi-Major Axis(m)": 7083131.272910544,
        "Time(s)": 45
    },
    {
        "Altitude(m)": 702711.3264125709,
        "Argument of Periapsis(deg)": 0.0027576082872886585,
        "Eccentricity": 0.0,
        "Inclination(deg)": 45.0,
        "Latitude(deg)": 9.54546524210544,
        "Longitude(deg)": -14.79236174339692,
        "Mean Anomaly(deg)": -193.5713475485046,
        "RAAN(deg)": 274.9973968983838,
        "Satellite Name": "Constellation 1 1220",
        "Satellite Number": 1220,
        "Semi-Major Axis(m)": 7083131.272910544,
        "Time(s)": 46
    },
    {
        "Altitude(m)": 702712.3742646525,
        "Argument of Periapsis(deg)": 0.0028175562935340644,
        "Eccentricity": 0.0,
        "Inclination(deg)": 45.0,
        "Latitude(deg)": 9.502855313203769,
        "Longitude(deg)": -14.752402699913844,
        "Mean Anomaly(deg)": -193.5106464082548,
        "RAAN(deg)": 274.9973403092182,
        "Satellite Name": "Constellation 1 1220",
        "Satellite Number": 1220,
        "Semi-Major Axis(m)": 7083131.272910544,
        "Time(s)": 47
    },
    {
        "Altitude(m)": 702713.4419136775,
        "Argument of Periapsis(deg)": 0.00287750429977947,
        "Eccentricity": 0.0,
        "Inclination(deg)": 45.0,
        "Latitude(deg)": 9.460239772180875,
        "Longitude(deg)": -14.71245459367869,
        "Mean Anomaly(deg)": -193.4499452680048,
        "RAAN(deg)": 274.9972837200527,
        "Satellite Name": "Constellation 1 1220",
        "Satellite Number": 1220,
        "Semi-Major Axis(m)": 7083131.272910544,
        "Time(s)": 48
    },
    {
        "Altitude(m)": 702714.5293733212,
        "Argument of Periapsis(deg)": 0.002937452306024875,
        "Eccentricity": 0.0,
        "Inclination(deg)": 45.0,
        "Latitude(deg)": 9.417618646286313,
        "Longitude(deg)": -14.672517373766485,
        "Mean Anomaly(deg)": -193.38924412775495,
        "RAAN(deg)": 274.9972271308871,
        "Satellite Name": "Constellation 1 1220",
        "Satellite Number": 1220,
        "Semi-Major Axis(m)": 7083131.272910544,
        "Time(s)": 49
    },
    {
        "Altitude(m)": 702715.6366571768,
        "Argument of Periapsis(deg)": 0.0029974003122702807,
        "Eccentricity": 0.0,
        "Inclination(deg)": 45.0,
        "Latitude(deg)": 9.374991962748481,
        "Longitude(deg)": -14.632590989274677,
        "Mean Anomaly(deg)": -193.328542987505,
        "RAAN(deg)": 274.9971705417216,
        "Satellite Name": "Constellation 1 1220",
        "Satellite Number": 1220,
        "Semi-Major Axis(m)": 7083131.272910544,
        "Time(s)": 50
    },
    {
        "Altitude(m)": 702716.76377875,
        "Argument of Periapsis(deg)": 0.0030573483185156866,
        "Eccentricity": 0.0,
        "Inclination(deg)": 45.0,
        "Latitude(deg)": 9.332359748775058,
        "Longitude(deg)": -14.592675389323409,
        "Mean Anomaly(deg)": -193.26784184725514,
        "RAAN(deg)": 274.99711395255594,
        "Satellite Name": "Constellation 1 1220",
        "Satellite Number": 1220,
        "Semi-Major Axis(m)": 7083131.272910544,
        "Time(s)": 51
    },
    {
        "Altitude(m)": 702717.9107514598,
        "Argument of Periapsis(deg)": 0.003117296324761092,
        "Eccentricity": 0.0,
        "Inclination(deg)": 45.0,
        "Latitude(deg)": 9.289722031552667,
        "Longitude(deg)": -14.552770691151972,
        "Mean Anomaly(deg)": -193.20714070700524,
        "RAAN(deg)": 274.99705736339035,
        "Satellite Name": "Constellation 1 1220",
        "Satellite Number": 1220,
        "Semi-Major Axis(m)": 7083131.272910544,
        "Time(s)": 52
    },
    {
        "Altitude(m)": 702719.077588633,
        "Argument of Periapsis(deg)": 0.0031772443310064975,
        "Eccentricity": 0.0,
        "Inclination(deg)": 45.0,
        "Latitude(deg)": 9.24707883824792,
        "Longitude(deg)": -14.512876507730851,
        "Mean Anomaly(deg)": -193.1464395667553,
        "RAAN(deg)": 274.99700077422483,
        "Satellite Name": "Constellation 1 1220",
        "Satellite Number": 1220,
        "Semi-Major Axis(m)": 7083131.272910544,
        "Time(s)": 53
    },
    {
        "Altitude(m)": 702720.2643035329,
        "Argument of Periapsis(deg)": 0.0032371923372519038,
        "Eccentricity": 0.0,
        "Inclination(deg)": 45.0,
        "Latitude(deg)": 9.204430196006388,
        "Longitude(deg)": -14.47299295634425,
        "Mean Anomaly(deg)": -193.08573842650546,
        "RAAN(deg)": 274.99694418505925,
        "Satellite Name": "Constellation 1 1220",
        "Satellite Number": 1220,
        "Semi-Major Axis(m)": 7083131.272910544,
        "Time(s)": 54
    },
    {
        "Altitude(m)": 702721.4709093125,
        "Argument of Periapsis(deg)": 0.0032971403434973088,
        "Eccentricity": 0.0,
        "Inclination(deg)": 45.0,
        "Latitude(deg)": 9.161776131953022,
        "Longitude(deg)": -14.433119986200838,
        "Mean Anomaly(deg)": -193.02503728625555,
        "RAAN(deg)": 274.9968875958937,
        "Satellite Name": "Constellation 1 1220",
        "Satellite Number": 1220,
        "Semi-Major Axis(m)": 7083131.272910544,
        "Time(s)": 55
    },
    {
        "Altitude(m)": 702722.6974190538,
        "Argument of Periapsis(deg)": 0.0033570883497427146,
        "Eccentricity": 0.0,
        "Inclination(deg)": 45.0,
        "Latitude(deg)": 9.119116673192648,
        "Longitude(deg)": -14.393257546531856,
        "Mean Anomaly(deg)": -192.9643361460056,
        "RAAN(deg)": 274.9968310067281,
        "Satellite Name": "Constellation 1 1220",
        "Satellite Number": 1220,
        "Semi-Major Axis(m)": 7083131.272910544,
        "Time(s)": 56
    }
]